{
  "norad_id": 53904,
  "name": "STARLINK-4787",
  "history": [
    {
      "epoch": "2026-05-05T06:45:09.705312Z",
      "apogee_km": 540.7145964315168,
      "perigee_km": 538.7983399408295,
      "latitude_deg": 1.2814076204553231e-05,
      "longitude_deg": 105.22217512213564,
      "height_km": 540.6636141040692,
      "semi_major_axis_km": 6917.893468186173,
      "eccentricity": 0.0001385,
      "inclination_deg": 53.2182,
      "raan_deg": 69.6712,
      "arg_perigee_deg": 90.6813,
      "mean_anomaly_deg": 269.4338,
      "mean_motion_rev_day": 15.08835721
    },
    {
      "epoch": "2026-05-06T12:57:29.555424Z",
      "apogee_km": 540.7836509011377,
      "perigee_km": 538.7903202839288,
      "latitude_deg": 7.894756637859927e-05,
      "longitude_deg": 5.248614284731392,
      "height_km": 540.634399498645,
      "semi_major_axis_km": 6917.923985592533,
      "eccentricity": 0.00014407,
      "inclination_deg": 53.2181,
      "raan_deg": 64.0208,
      "arg_perigee_deg": 87.2257,
      "mean_anomaly_deg": 272.8901,
      "mean_motion_rev_day": 15.08825737
    },
    {
      "epoch": "2026-05-07T19:09:48.507840Z",
      "apogee_km": 540.9737549544943,
      "perigee_km": 538.5137565577479,
      "latitude_deg": -4.72447950849051e-05,
      "longitude_deg": -94.72073859281863,
      "height_km": 540.5028734773554,
      "semi_major_axis_km": 6917.880755756121,
      "eccentricity": 0.0001778,
      "inclination_deg": 53.2171,
      "raan_deg": 58.371,
      "arg_perigee_deg": 83.6523,
      "mean_anomaly_deg": 276.4671,
      "mean_motion_rev_day": 15.0883988
    },
    {
      "epoch": "2026-05-08T01:31:21.583200Z",
      "apogee_km": 540.7231763100599,
      "perigee_km": 538.8078858153103,
      "latitude_deg": 2.769577336898923e-05,
      "longitude_deg": 168.43963969728804,
      "height_km": 540.6284853486075,
      "semi_major_axis_km": 6917.902531062685,
      "eccentricity": 0.00013843,
      "inclination_deg": 53.2174,
      "raan_deg": 57.1803,
      "arg_perigee_deg": 88.0424,
      "mean_anomaly_deg": 272.0727,
      "mean_motion_rev_day": 15.08832756
    },
    {
      "epoch": "2026-05-09T01:22:10.573248Z",
      "apogee_km": 540.6351878665846,
      "perigee_km": 538.9782019927752,
      "latitude_deg": -2.8395141600030883e-05,
      "longitude_deg": 165.29471094563428,
      "height_km": 540.6978079562787,
      "semi_major_axis_km": 6917.94369492968,
      "eccentricity": 0.00011976,
      "inclination_deg": 53.2173,
      "raan_deg": 52.7189,
      "arg_perigee_deg": 89.6679,
      "mean_anomaly_deg": 270.445,
      "mean_motion_rev_day": 15.08819289
    },
    {
      "epoch": "2026-05-10T18:42:11.407680Z",
      "apogee_km": 540.7342541498392,
      "perigee_km": 538.8166088238304,
      "latitude_deg": -4.50756816568574e-05,
      "longitude_deg": -104.13499010272446,
      "height_km": 540.6057243841047,
      "semi_major_axis_km": 6917.912431486834,
      "eccentricity": 0.0001386,
      "inclination_deg": 53.217,
      "raan_deg": 44.9902,
      "arg_perigee_deg": 86.0923,
      "mean_anomaly_deg": 274.0227,
      "mean_motion_rev_day": 15.08829517
    },
    {
      "epoch": "2026-05-11T01:03:43.891200Z",
      "apogee_km": 540.8418344670208,
      "perigee_km": 538.6927183245161,
      "latitude_deg": -4.902770947748173e-05,
      "longitude_deg": 159.02840292881064,
      "height_km": 540.5820989614131,
      "semi_major_axis_km": 6917.904276395769,
      "eccentricity": 0.00015533,
      "inclination_deg": 53.2181,
      "raan_deg": 43.8001,
      "arg_perigee_deg": 85.693,
      "mean_anomaly_deg": 274.4239,
      "mean_motion_rev_day": 15.08832185
    },
    {
      "epoch": "2026-05-12T16:48:21.580128Z",
      "apogee_km": 540.9471277574639,
      "perigee_km": 538.5009720902117,
      "latitude_deg": -5.118190467947902e-06,
      "longitude_deg": -86.19042134415601,
      "height_km": 540.7804137831862,
      "semi_major_axis_km": 6917.8610499238375,
      "eccentricity": 0.0001768,
      "inclination_deg": 53.2211,
      "raan_deg": 36.3705,
      "arg_perigee_deg": 97.5555,
      "mean_anomaly_deg": 262.5638,
      "mean_motion_rev_day": 15.08846327
    },
    {
      "epoch": "2026-05-13T03:56:04.104096Z",
      "apogee_km": 540.8324763964656,
      "perigee_km": 538.6523758741123,
      "latitude_deg": -3.382620982607614e-05,
      "longitude_deg": 104.33984398477276,
      "height_km": 540.7010874343158,
      "semi_major_axis_km": 6917.879426135289,
      "eccentricity": 0.00015757,
      "inclination_deg": 53.2184,
      "raan_deg": 34.285,
      "arg_perigee_deg": 93.3208,
      "mean_anomaly_deg": 266.7964,
      "mean_motion_rev_day": 15.08840315
    },
    {
      "epoch": "2026-05-14T00:36:04.500576Z",
      "apogee_km": 540.8202483897794,
      "perigee_km": 538.6454084731176,
      "latitude_deg": 1.6781806504926174e-05,
      "longitude_deg": 149.623675801389,
      "height_km": 540.7094649705575,
      "semi_major_axis_km": 6917.869828431449,
      "eccentricity": 0.00015719,
      "inclination_deg": 53.2184,
      "raan_deg": 30.4192,
      "arg_perigee_deg": 94.278,
      "mean_anomaly_deg": 265.8392,
      "mean_motion_rev_day": 15.08843455
    }
  ]
}